SXM-7                   
1 47240U 20096A   26066.07822580 -.00000208  00000+0  00000+0 0  9995
2 47240   0.0217 119.5579 0004484   7.0302 341.1787  1.00272786  6424
BREEZE-M DEB [TANK]     
1 47243U 20097B   26065.62250059  .00000508  00000+0  51080-3 0  9995
2 47243  58.2693 129.4595 7303270 103.6914 340.2676  2.20439318 41944
CMS-01                  
1 47256U 20099A   26066.09718876 -.00000167  00000+0  00000+0 0  9993
2 47256   0.0244 122.9132 0006167 167.5833 352.2881  1.00272177 19173
TURKSAT 5A              
1 47306U 21001A   26066.07802911  .00000152  00000+0  00000+0 0  9998
2 47306   0.0177 106.9487 0000065 342.3331 134.5084  1.00272543 18943
FALCON 9 R/B            
1 47307U 21001B   26065.62074781  .00000200  00000+0  99419-3 0  9995
2 47307  15.9410 216.2488 7775629 340.2029   1.2896  1.65130373 28462
TIANTONG-1 3            
1 47321U 21003A   26066.15253190 -.00000157  00000+0  00000+0 0  9991
2 47321   1.8491 333.2745 0003405  10.4604 317.5160  1.00274373 18937
TJS-6                   
1 47613U 21010A   26066.12336426  .00000040  00000+0  00000+0 0  9994
2 47613   0.3370  90.7414 0003428 287.9247   9.0507  1.00271711 18782
ARKTIKA-M 1             
1 47719U 21016A   26065.31200600 -.00000142  00000+0  00000+0 0  9995
2 47719  63.2063  72.3539 7244489 269.4705  15.1937  2.00620361 36724
FREGAT R/B              
1 47720U 21016B   26060.90955432 -.00001502  00000+0  00000+0 0  9998
2 47720  63.2285  65.8235 7364666 267.1765  14.9941  1.98956105 36303
SHIYAN-9 (SY-9)         
1 47851U 21019A   26044.36779670 -.00000221  00000+0  00000+0 0  9993
2 47851  16.7978 304.0404 0016854  23.4452  94.4865  1.00262375 22897
SL-6 DEB                
1 48261U 80063E   26065.29746635 -.00000506  00000+0 -12980-2 0  9993
2 48261  63.9095 359.2586 7122098 284.4620  11.8380  2.11473537 94836
SL-6 DEB                
1 48262U 80063F   26064.85515074 -.00001250  00000+0  26648-2 0  9998
2 48262  63.5964  17.7172 7221491 280.8710 350.3619  2.05121657 92045
COSMOS 1367 DEB         
1 48266U 82045E   26065.83545823  .00000360  00000+0  89359-2 0  9996
2 48266  64.1265  65.0373 7205996  13.4080 358.3994  2.06306159 45518
ARIANE 3 DEB            
1 48347U 84081G   26065.25867090  .00000008  00000+0  00000+0 0  9999
2 48347   6.1191  29.3095 7096445 306.1766   7.4046  2.08086931 93503
SBIRS GEO-5 (USA 315)   
1 48618U 21042A   26066.09926876 -.00000270  00000+0  00000+0 0  9991
2 48618   5.2335 328.3547 0001418  10.6611 315.3080  1.00272377 17746
FENGYUN 4B              
1 48808U 21047A   26066.03019513 -.00000333  00000+0  00000+0 0  9992
2 48808   0.1987  77.1349 0008068 295.8116 267.2302  1.00277463 17549
SXM-8                   
1 48838U 21049A   26065.99258162 -.00000208  00000+0  00000+0 0  9997
2 48838   0.0308  58.7567 0004507 348.2275  29.8918  1.00271775 17565
