[{"OBJECT_NAME":"SXM-7","OBJECT_ID":"2020-096A","EPOCH":"2026-03-07T01:52:38.709120","MEAN_MOTION":1.00272786,"ECCENTRICITY":0.0004484,"INCLINATION":0.0217,"RA_OF_ASC_NODE":119.5579,"ARG_OF_PERICENTER":7.0302,"MEAN_ANOMALY":341.1787,"EPHEMERIS_TYPE":0,"CLASSIFICATION_TYPE":"U","NORAD_CAT_ID":47240,"ELEMENT_SET_NO":999,"REV_AT_EPOCH":642,"BSTAR":0,"MEAN_MOTION_DOT":-2.08e-6,"MEAN_MOTION_DDOT":0},{"OBJECT_NAME":"BREEZE-M DEB [TANK]","OBJECT_ID":"2020-097B","EPOCH":"2026-03-06T14:56:24.050976","MEAN_MOTION":2.20439318,"ECCENTRICITY":0.730327,"INCLINATION":58.2693,"RA_OF_ASC_NODE":129.4595,"ARG_OF_PERICENTER":103.6914,"MEAN_ANOMALY":340.2676,"EPHEMERIS_TYPE":0,"CLASSIFICATION_TYPE":"U","NORAD_CAT_ID":47243,"ELEMENT_SET_NO":999,"REV_AT_EPOCH":4194,"BSTAR":0.00051079908,"MEAN_MOTION_DOT":5.08e-6,"MEAN_MOTION_DDOT":0},{"OBJECT_NAME":"CMS-01","OBJECT_ID":"2020-099A","EPOCH":"2026-03-07T02:19:57.108864","MEAN_MOTION":1.00272177,"ECCENTRICITY":0.0006167,"INCLINATION":0.0244,"RA_OF_ASC_NODE":122.9132,"ARG_OF_PERICENTER":167.5833,"MEAN_ANOMALY":352.2881,"EPHEMERIS_TYPE":0,"CLASSIFICATION_TYPE":"U","NORAD_CAT_ID":47256,"ELEMENT_SET_NO":999,"REV_AT_EPOCH":1917,"BSTAR":0,"MEAN_MOTION_DOT":-1.67e-6,"MEAN_MOTION_DDOT":0},{"OBJECT_NAME":"TURKSAT 5A","OBJECT_ID":"2021-001A","EPOCH":"2026-03-07T01:52:21.715104","MEAN_MOTION":1.00272543,"ECCENTRICITY":6.5e-6,"INCLINATION":0.0177,"RA_OF_ASC_NODE":106.9487,"ARG_OF_PERICENTER":342.3331,"MEAN_ANOMALY":134.5084,"EPHEMERIS_TYPE":0,"CLASSIFICATION_TYPE":"U","NORAD_CAT_ID":47306,"ELEMENT_SET_NO":999,"REV_AT_EPOCH":1894,"BSTAR":0,"MEAN_MOTION_DOT":1.52e-6,"MEAN_MOTION_DDOT":0},{"OBJECT_NAME":"FALCON 9 R/B","OBJECT_ID":"2021-001B","EPOCH":"2026-03-06T14:53:52.610784","MEAN_MOTION":1.65130373,"ECCENTRICITY":0.7775629,"INCLINATION":15.941,"RA_OF_ASC_NODE":216.2488,"ARG_OF_PERICENTER":340.2029,"MEAN_ANOMALY":1.2896,"EPHEMERIS_TYPE":0,"CLASSIFICATION_TYPE":"U","NORAD_CAT_ID":47307,"ELEMENT_SET_NO":999,"REV_AT_EPOCH":2846,"BSTAR":0.00099419,"MEAN_MOTION_DOT":2.0e-6,"MEAN_MOTION_DDOT":0},{"OBJECT_NAME":"TIANTONG-1 3","OBJECT_ID":"2021-003A","EPOCH":"2026-03-07T03:39:38.756160","MEAN_MOTION":1.00274373,"ECCENTRICITY":0.0003405,"INCLINATION":1.8491,"RA_OF_ASC_NODE":333.2745,"ARG_OF_PERICENTER":10.4604,"MEAN_ANOMALY":317.516,"EPHEMERIS_TYPE":0,"CLASSIFICATION_TYPE":"U","NORAD_CAT_ID":47321,"ELEMENT_SET_NO":999,"REV_AT_EPOCH":1893,"BSTAR":0,"MEAN_MOTION_DOT":-1.57e-6,"MEAN_MOTION_DDOT":0},{"OBJECT_NAME":"TJS-6","OBJECT_ID":"2021-010A","EPOCH":"2026-03-07T02:57:38.672064","MEAN_MOTION":1.00271711,"ECCENTRICITY":0.0003428,"INCLINATION":0.337,"RA_OF_ASC_NODE":90.7414,"ARG_OF_PERICENTER":287.9247,"MEAN_ANOMALY":9.0507,"EPHEMERIS_TYPE":0,"CLASSIFICATION_TYPE":"U","NORAD_CAT_ID":47613,"ELEMENT_SET_NO":999,"REV_AT_EPOCH":1878,"BSTAR":0,"MEAN_MOTION_DOT":4.0e-7,"MEAN_MOTION_DDOT":0},{"OBJECT_NAME":"ARKTIKA-M 1","OBJECT_ID":"2021-016A","EPOCH":"2026-03-06T07:29:17.318400","MEAN_MOTION":2.00620361,"ECCENTRICITY":0.7244489,"INCLINATION":63.2063,"RA_OF_ASC_NODE":72.3539,"ARG_OF_PERICENTER":269.4705,"MEAN_ANOMALY":15.1937,"EPHEMERIS_TYPE":0,"CLASSIFICATION_TYPE":"U","NORAD_CAT_ID":47719,"ELEMENT_SET_NO":999,"REV_AT_EPOCH":3672,"BSTAR":0,"MEAN_MOTION_DOT":-1.42e-6,"MEAN_MOTION_DDOT":0},{"OBJECT_NAME":"FREGAT R/B","OBJECT_ID":"2021-016B","EPOCH":"2026-03-01T21:49:45.493248","MEAN_MOTION":1.98956105,"ECCENTRICITY":0.73646663,"INCLINATION":63.2285,"RA_OF_ASC_NODE":65.8235,"ARG_OF_PERICENTER":267.1765,"MEAN_ANOMALY":14.9941,"EPHEMERIS_TYPE":0,"CLASSIFICATION_TYPE":"U","NORAD_CAT_ID":47720,"ELEMENT_SET_NO":999,"REV_AT_EPOCH":3630,"BSTAR":0,"MEAN_MOTION_DOT":-1.502e-5,"MEAN_MOTION_DDOT":0},{"OBJECT_NAME":"SHIYAN-9 (SY-9)","OBJECT_ID":"2021-019A","EPOCH":"2026-02-13T08:49:37.634880","MEAN_MOTION":1.00262375,"ECCENTRICITY":0.0016854,"INCLINATION":16.7978,"RA_OF_ASC_NODE":304.0404,"ARG_OF_PERICENTER":23.4452,"MEAN_ANOMALY":94.4865,"EPHEMERIS_TYPE":0,"CLASSIFICATION_TYPE":"U","NORAD_CAT_ID":47851,"ELEMENT_SET_NO":999,"REV_AT_EPOCH":2289,"BSTAR":0,"MEAN_MOTION_DOT":-2.21e-6,"MEAN_MOTION_DDOT":0},{"OBJECT_NAME":"SL-6 DEB","OBJECT_ID":"1980-063E","EPOCH":"2026-03-06T07:08:21.092640","MEAN_MOTION":2.11473537,"ECCENTRICITY":0.7122098,"INCLINATION":63.9095,"RA_OF_ASC_NODE":359.2586,"ARG_OF_PERICENTER":284.462,"MEAN_ANOMALY":11.838,"EPHEMERIS_TYPE":0,"CLASSIFICATION_TYPE":"U","NORAD_CAT_ID":48261,"ELEMENT_SET_NO":999,"REV_AT_EPOCH":9483,"BSTAR":-0.001298,"MEAN_MOTION_DOT":-5.06e-6,"MEAN_MOTION_DDOT":0},{"OBJECT_NAME":"SL-6 DEB","OBJECT_ID":"1980-063F","EPOCH":"2026-03-05T20:31:25.023936","MEAN_MOTION":2.05121657,"ECCENTRICITY":0.72214918,"INCLINATION":63.5964,"RA_OF_ASC_NODE":17.7172,"ARG_OF_PERICENTER":280.871,"MEAN_ANOMALY":350.3619,"EPHEMERIS_TYPE":0,"CLASSIFICATION_TYPE":"U","NORAD_CAT_ID":48262,"ELEMENT_SET_NO":999,"REV_AT_EPOCH":9204,"BSTAR":0.0026647761,"MEAN_MOTION_DOT":-1.25e-5,"MEAN_MOTION_DDOT":0},{"OBJECT_NAME":"COSMOS 1367 DEB","OBJECT_ID":"1982-045E","EPOCH":"2026-03-06T20:03:03.591072","MEAN_MOTION":2.06306159,"ECCENTRICITY":0.7205996,"INCLINATION":64.1265,"RA_OF_ASC_NODE":65.0373,"ARG_OF_PERICENTER":13.408,"MEAN_ANOMALY":358.3994,"EPHEMERIS_TYPE":0,"CLASSIFICATION_TYPE":"U","NORAD_CAT_ID":48266,"ELEMENT_SET_NO":999,"REV_AT_EPOCH":4551,"BSTAR":0.0089359,"MEAN_MOTION_DOT":3.6e-6,"MEAN_MOTION_DDOT":0},{"OBJECT_NAME":"ARIANE 3 DEB","OBJECT_ID":"1984-081G","EPOCH":"2026-03-06T06:12:29.165760","MEAN_MOTION":2.08086931,"ECCENTRICITY":0.70964457,"INCLINATION":6.1191,"RA_OF_ASC_NODE":29.3095,"ARG_OF_PERICENTER":306.1766,"MEAN_ANOMALY":7.4046,"EPHEMERIS_TYPE":0,"CLASSIFICATION_TYPE":"U","NORAD_CAT_ID":48347,"ELEMENT_SET_NO":999,"REV_AT_EPOCH":9350,"BSTAR":0,"MEAN_MOTION_DOT":8.0e-8,"MEAN_MOTION_DDOT":0},{"OBJECT_NAME":"SBIRS GEO-5 (USA 315)","OBJECT_ID":"2021-042A","EPOCH":"2026-03-07T02:22:56.820864","MEAN_MOTION":1.00272377,"ECCENTRICITY":0.0001418,"INCLINATION":5.2335,"RA_OF_ASC_NODE":328.3547,"ARG_OF_PERICENTER":10.6611,"MEAN_ANOMALY":315.308,"EPHEMERIS_TYPE":0,"CLASSIFICATION_TYPE":"U","NORAD_CAT_ID":48618,"ELEMENT_SET_NO":999,"REV_AT_EPOCH":1774,"BSTAR":0,"MEAN_MOTION_DOT":-2.7e-6,"MEAN_MOTION_DDOT":0},{"OBJECT_NAME":"FENGYUN 4B","OBJECT_ID":"2021-047A","EPOCH":"2026-03-07T00:43:28.859232","MEAN_MOTION":1.00277463,"ECCENTRICITY":0.0008068,"INCLINATION":0.1987,"RA_OF_ASC_NODE":77.1349,"ARG_OF_PERICENTER":295.8116,"MEAN_ANOMALY":267.2302,"EPHEMERIS_TYPE":0,"CLASSIFICATION_TYPE":"U","NORAD_CAT_ID":48808,"ELEMENT_SET_NO":999,"REV_AT_EPOCH":1754,"BSTAR":0,"MEAN_MOTION_DOT":-3.33e-6,"MEAN_MOTION_DDOT":0},{"OBJECT_NAME":"SXM-8","OBJECT_ID":"2021-049A","EPOCH":"2026-03-06T23:49:19.051968","MEAN_MOTION":1.00271775,"ECCENTRICITY":0.0004507,"INCLINATION":0.0308,"RA_OF_ASC_NODE":58.7567,"ARG_OF_PERICENTER":348.2275,"MEAN_ANOMALY":29.8918,"EPHEMERIS_TYPE":0,"CLASSIFICATION_TYPE":"U","NORAD_CAT_ID":48838,"ELEMENT_SET_NO":999,"REV_AT_EPOCH":1756,"BSTAR":0,"MEAN_MOTION_DOT":-2.08e-6,"MEAN_MOTION_DDOT":0}]
